CCSDS_OMM_VERS = 2.0
CREATION_DATE  = 
ORIGINATOR     = 

OBJECT_NAME    = CZ-2C R/B
OBJECT_ID      = 2022-058K
CENTER_NAME    = EARTH
REF_FRAME      = TEME
TIME_SYSTEM    = UTC
MEAN_ELEMENT_THEORY = SGP/SGP4

EPOCH          = 2025-11-23T08:59:57.340608
MEAN_MOTION    = 15.47144519
ECCENTRICITY   = .0047656
INCLINATION    = 50.1884
RA_OF_ASC_NODE = 142.2031
ARG_OF_PERICENTER = 118.4807
MEAN_ANOMALY   = 242.0973

EPHEMERIS_TYPE = 0
CLASSIFICATION_TYPE = U
NORAD_CAT_ID   = 52794
ELEMENT_SET_NO = 999
REV_AT_EPOCH   = 19363
BSTAR          = .60938E-3
MEAN_MOTION_DOT = .32606E-3
MEAN_MOTION_DDOT = 0

CCSDS_OMM_VERS = 2.0
CREATION_DATE  = 
ORIGINATOR     = 

OBJECT_NAME    = CZ-2C R/B
OBJECT_ID      = 2022-132E
CENTER_NAME    = EARTH
REF_FRAME      = TEME
TIME_SYSTEM    = UTC
MEAN_ELEMENT_THEORY = SGP/SGP4

EPOCH          = 2025-11-23T10:00:23.109696
MEAN_MOTION    = 15.53235941
ECCENTRICITY   = .0023785
INCLINATION    = 97.2946
RA_OF_ASC_NODE = 323.2707
ARG_OF_PERICENTER = 120.1770
MEAN_ANOMALY   = 240.1844

EPHEMERIS_TYPE = 0
CLASSIFICATION_TYPE = U
NORAD_CAT_ID   = 54039
ELEMENT_SET_NO = 999
REV_AT_EPOCH   = 17383
BSTAR          = .4893E-3
MEAN_MOTION_DOT = .31118E-3
MEAN_MOTION_DDOT = 0

CCSDS_OMM_VERS = 2.0
CREATION_DATE  = 
ORIGINATOR     = 

OBJECT_NAME    = GSLV R/B
OBJECT_ID      = 2022-138AN
CENTER_NAME    = EARTH
REF_FRAME      = TEME
TIME_SYSTEM    = UTC
MEAN_ELEMENT_THEORY = SGP/SGP4

EPOCH          = 2025-11-23T04:34:42.182400
MEAN_MOTION    = 14.95983407
ECCENTRICITY   = .002171
INCLINATION    = 87.3844
RA_OF_ASC_NODE = 202.0180
ARG_OF_PERICENTER = 171.7559
MEAN_ANOMALY   = 188.4033

EPHEMERIS_TYPE = 0
CLASSIFICATION_TYPE = U
NORAD_CAT_ID   = 54149
ELEMENT_SET_NO = 999
REV_AT_EPOCH   = 16800
BSTAR          = .27315E-3
MEAN_MOTION_DOT = .3103E-4
MEAN_MOTION_DDOT = 0

CCSDS_OMM_VERS = 2.0
CREATION_DATE  = 
ORIGINATOR     = 

OBJECT_NAME    = XRISM
OBJECT_ID      = 2023-137A
CENTER_NAME    = EARTH
REF_FRAME      = TEME
TIME_SYSTEM    = UTC
MEAN_ELEMENT_THEORY = SGP/SGP4

EPOCH          = 2025-11-23T03:19:05.485152
MEAN_MOTION    = 15.10076512
ECCENTRICITY   = .0007624
INCLINATION    = 31.0022
RA_OF_ASC_NODE = 252.0758
ARG_OF_PERICENTER = 45.7029
MEAN_ANOMALY   = 314.4234

EPHEMERIS_TYPE = 0
CLASSIFICATION_TYPE = U
NORAD_CAT_ID   = 57800
ELEMENT_SET_NO = 999
REV_AT_EPOCH   = 12166
BSTAR          = .40121E-3
MEAN_MOTION_DOT = .6793E-4
MEAN_MOTION_DDOT = 0

CCSDS_OMM_VERS = 2.0
CREATION_DATE  = 
ORIGINATOR     = 

OBJECT_NAME    = ACS3
OBJECT_ID      = 2024-077B
CENTER_NAME    = EARTH
REF_FRAME      = TEME
TIME_SYSTEM    = UTC
MEAN_ELEMENT_THEORY = SGP/SGP4

EPOCH          = 2025-11-22T21:13:05.611872
MEAN_MOTION    = 13.84196562
ECCENTRICITY   = .0069328
INCLINATION    = 97.2936
RA_OF_ASC_NODE = 286.9108
ARG_OF_PERICENTER = 14.3907
MEAN_ANOMALY   = 345.9207

EPHEMERIS_TYPE = 0
CLASSIFICATION_TYPE = U
NORAD_CAT_ID   = 59588
ELEMENT_SET_NO = 999
REV_AT_EPOCH   = 7939
BSTAR          = .18059E-2
MEAN_MOTION_DOT = .2023E-4
MEAN_MOTION_DDOT = 0

