CZ-2C R/B               
1 52794U 22058K   25327.37496922  .00032606  00000+0  60938-3 0  9990
2 52794  50.1884 142.2031 0047656 118.4807 242.0973 15.47144519193635
CZ-2C R/B               
1 54039U 22132E   25327.41693414  .00031118  00000+0  48930-3 0  9992
2 54039  97.2946 323.2707 0023785 120.1770 240.1844 15.53235941173830
GSLV R/B                
1 54149U 22138AN  25327.19076600  .00003103  00000+0  27315-3 0  9994
2 54149  87.3844 202.0180 0021710 171.7559 188.4033 14.95983407168000
XRISM                   
1 57800U 23137A   25327.13825793  .00006793  00000+0  40121-3 0  9998
2 57800  31.0022 252.0758 0007624  45.7029 314.4234 15.10076512121660
ACS3                    
1 59588U 24077B   25326.88409273  .00002023  00000+0  18059-2 0  9995
2 59588  97.2936 286.9108 0069328  14.3907 345.9207 13.84196562 79392
